{
  "links" : {
    "next" : "https://api.nasa.gov/neo/rest/v1/feed?start_date=2004-05-23&end_date=2004-05-23&detailed=true&api_key=t0TVs3DtDT2H8Oy2Zy8m2eVrNsAVKAexjcZXUckd",
    "prev" : "https://api.nasa.gov/neo/rest/v1/feed?start_date=2004-05-21&end_date=2004-05-21&detailed=true&api_key=t0TVs3DtDT2H8Oy2Zy8m2eVrNsAVKAexjcZXUckd",
    "self" : "https://api.nasa.gov/neo/rest/v1/feed?start_date=2004-05-22&end_date=2004-05-22&detailed=true&api_key=t0TVs3DtDT2H8Oy2Zy8m2eVrNsAVKAexjcZXUckd"
  },
  "element_count" : 2,
  "near_earth_objects" : {
    "2004-05-22" : [ {
      "links" : {
        "self" : "https://api.nasa.gov/neo/rest/v1/neo/3299947?api_key=t0TVs3DtDT2H8Oy2Zy8m2eVrNsAVKAexjcZXUckd"
      },
      "neo_reference_id" : "3299947",
      "name" : "(2005 VR7)",
      "nasa_jpl_url" : "http://ssd.jpl.nasa.gov/sbdb.cgi?sstr=3299947",
      "absolute_magnitude_h" : 21.3,
      "estimated_diameter" : {
        "kilometers" : {
          "estimated_diameter_min" : 0.1460679643,
          "estimated_diameter_max" : 0.3266178974
        },
        "meters" : {
          "estimated_diameter_min" : 146.0679642714,
          "estimated_diameter_max" : 326.6178974458
        },
        "miles" : {
          "estimated_diameter_min" : 0.090762397,
          "estimated_diameter_max" : 0.2029508896
        },
        "feet" : {
          "estimated_diameter_min" : 479.2256199,
          "estimated_diameter_max" : 1071.581062656
        }
      },
      "is_potentially_hazardous_asteroid" : true,
      "close_approach_data" : [ {
        "close_approach_date" : "2004-05-22",
        "epoch_date_close_approach" : 1085209200000,
        "relative_velocity" : {
          "kilometers_per_second" : "25.4579553522",
          "kilometers_per_hour" : "91648.6392680564",
          "miles_per_hour" : "56946.900327421"
        },
        "miss_distance" : {
          "astronomical" : "0.4465342667",
          "lunar" : "173.7018280029",
          "kilometers" : "66800576",
          "miles" : "41507956"
        },
        "orbiting_body" : "Earth"
      } ],
      "orbital_data" : {
        "orbit_id" : "18",
        "orbit_determination_date" : "2017-04-06 09:09:53",
        "orbit_uncertainty" : "0",
        "minimum_orbit_intersection" : ".0303256",
        "jupiter_tisserand_invariant" : "5.595",
        "epoch_osculation" : "2458000.5",
        "eccentricity" : ".2871806479119299",
        "semi_major_axis" : "1.082913810034696",
        "inclination" : "25.24894566737819",
        "ascending_node_longitude" : "254.8803982203071",
        "orbital_period" : "411.6131729235228",
        "perihelion_distance" : ".7719219204361555",
        "perihelion_argument" : "101.0699956639783",
        "aphelion_distance" : "1.393905699633237",
        "perihelion_time" : "2458150.447045093606",
        "mean_anomaly" : "228.8551781511426",
        "mean_motion" : ".8746075774083343",
        "equinox" : "J2000"
      }
    }, {
      "links" : {
        "self" : "https://api.nasa.gov/neo/rest/v1/neo/3702705?api_key=t0TVs3DtDT2H8Oy2Zy8m2eVrNsAVKAexjcZXUckd"
      },
      "neo_reference_id" : "3702705",
      "name" : "(2014 YR)",
      "nasa_jpl_url" : "http://ssd.jpl.nasa.gov/sbdb.cgi?sstr=3702705",
      "absolute_magnitude_h" : 20.5,
      "estimated_diameter" : {
        "kilometers" : {
          "estimated_diameter_min" : 0.2111324448,
          "estimated_diameter_max" : 0.4721064988
        },
        "meters" : {
          "estimated_diameter_min" : 211.1324447897,
          "estimated_diameter_max" : 472.1064988055
        },
        "miles" : {
          "estimated_diameter_min" : 0.1311915784,
          "estimated_diameter_max" : 0.2933532873
        },
        "feet" : {
          "estimated_diameter_min" : 692.6917701639,
          "estimated_diameter_max" : 1548.9058855411
        }
      },
      "is_potentially_hazardous_asteroid" : false,
      "close_approach_data" : [ {
        "close_approach_date" : "2004-05-22",
        "epoch_date_close_approach" : 1085209200000,
        "relative_velocity" : {
          "kilometers_per_second" : "18.543480484",
          "kilometers_per_hour" : "66756.5297423658",
          "miles_per_hour" : "41479.9114946383"
        },
        "miss_distance" : {
          "astronomical" : "0.2166248064",
          "lunar" : "84.2670516968",
          "kilometers" : "32406610",
          "miles" : "20136534"
        },
        "orbiting_body" : "Earth"
      } ],
      "orbital_data" : {
        "orbit_id" : "15",
        "orbit_determination_date" : "2017-04-06 08:36:49",
        "orbit_uncertainty" : "3",
        "minimum_orbit_intersection" : ".197143",
        "jupiter_tisserand_invariant" : "4.495",
        "epoch_osculation" : "2458000.5",
        "eccentricity" : ".5500611300205355",
        "semi_major_axis" : "1.424481080411341",
        "inclination" : "15.45896147261556",
        "ascending_node_longitude" : "195.1634721837353",
        "orbital_period" : "620.988353292598",
        "perihelion_distance" : ".6409294076274055",
        "perihelion_argument" : "145.3735611054574",
        "aphelion_distance" : "2.208032753195276",
        "perihelion_time" : "2458174.713917458643",
        "mean_anomaly" : "259.0045305156304",
        "mean_motion" : ".5797210174574317",
        "equinox" : "J2000"
      }
    } ]
  }
}